{
  "type": "FeatureCollection",
  "features": [
    {
      "type": "Feature",
      "properties": {
        "norad_id": 35786,
        "name": "COSMOS 2251 DEB",
        "group": "cosmos-2251-debris",
        "lat": -23.40818359123519,
        "lon": -117.60954847174176,
        "alt_km": 655.3296076512424,
        "timestamp": "2025-12-06T18:50:10.566422+00:00",
        "meta_object_name": "COSMOS 2251 DEB",
        "meta_object_id": "1993-036ASG",
        "meta_epoch": "2025-12-05T22:15:20.968992",
        "meta_mean_motion": 14.6610287,
        "meta_eccentricity": 0.00346967,
        "meta_inclination": 74.0154,
        "meta_ra_of_asc_node": 56.9159,
        "meta_arg_of_pericenter": 188.1544,
        "meta_mean_anomaly": 171.9065,
        "meta_ephemeris_type": 0,
        "meta_classification_type": "U",
        "meta_norad_cat_id": 35786,
        "meta_element_set_no": 999,
        "meta_rev_at_epoch": 73308,
        "meta_bstar": 0.0018872115,
        "meta_mean_motion_dot": 0.00010443,
        "meta_mean_motion_ddot": 0,
        "tle_line1": "1 35786U 93036ASG 25339.92732603  .00010443  00000+0  18872-2 0  9993",
        "tle_line2": "2 35786  74.0154  56.9159 0034696 188.1544 171.9065 14.66102870733081"
      },
      "geometry": {
        "type": "Point",
        "coordinates": [
          -117.60954847174176,
          -23.40818359123519
        ]
      }
    },
    {
      "type": "Feature",
      "properties": {
        "norad_id": 35789,
        "name": "COSMOS 2251 DEB",
        "group": "cosmos-2251-debris",
        "lat": -4.038554092974141,
        "lon": 116.46052728314088,
        "alt_km": 803.3926208491393,
        "timestamp": "2025-12-06T18:50:10.566431+00:00",
        "meta_object_name": "COSMOS 2251 DEB",
        "meta_object_id": "1993-036ASK",
        "meta_epoch": "2025-12-04T04:07:13.820736",
        "meta_mean_motion": 14.3597471,
        "meta_eccentricity": 0.00471528,
        "meta_inclination": 74.0391,
        "meta_ra_of_asc_node": 300.0971,
        "meta_arg_of_pericenter": 41.8218,
        "meta_mean_anomaly": 318.6522,
        "meta_ephemeris_type": 0,
        "meta_classification_type": "U",
        "meta_norad_cat_id": 35789,
        "meta_element_set_no": 999,
        "meta_rev_at_epoch": 61104,
        "meta_bstar": 0.00025299607,
        "meta_mean_motion_dot": 7.18e-06,
        "meta_mean_motion_ddot": 0,
        "tle_line1": "1 35789U 93036ASK 25338.17168774  .00000718  00000+0  25300-3 0  9993",
        "tle_line2": "2 35789  74.0391 300.0971 0047152  41.8218 318.6522 14.35974710611041"
      },
      "geometry": {
        "type": "Point",
        "coordinates": [
          116.46052728314088,
          -4.038554092974141
        ]
      }
    },
    {
      "type": "Feature",
      "properties": {
        "norad_id": 35793,
        "name": "COSMOS 2251 DEB",
        "group": "cosmos-2251-debris",
        "lat": 42.24336776243103,
        "lon": 86.94629082152512,
        "alt_km": 630.8764756260207,
        "timestamp": "2025-12-06T18:50:10.566441+00:00",
        "meta_object_name": "COSMOS 2251 DEB",
        "meta_object_id": "1993-036ASP",
        "meta_epoch": "2025-12-05T23:56:23.385696",
        "meta_mean_motion": 14.78407319,
        "meta_eccentricity": 0.00030236,
        "meta_inclination": 74.0418,
        "meta_ra_of_asc_node": 73.4304,
        "meta_arg_of_pericenter": 147.3638,
        "meta_mean_anomaly": 28.3256,
        "meta_ephemeris_type": 0,
        "meta_classification_type": "U",
        "meta_norad_cat_id": 35793,
        "meta_element_set_no": 999,
        "meta_rev_at_epoch": 65697,
        "meta_bstar": 0.0029643636,
        "meta_mean_motion_dot": 0.00021638,
        "meta_mean_motion_ddot": 0,
        "tle_line1": "1 35793U 93036ASP 25339.99749289  .00021638  00000+0  29644-2 0  9993",
        "tle_line2": "2 35793  74.0418  73.4304 0003023 147.3638  28.3256 14.78407319656977"
      },
      "geometry": {
        "type": "Point",
        "coordinates": [
          86.94629082152512,
          42.24336776243103
        ]
      }
    },
    {
      "type": "Feature",
      "properties": {
        "norad_id": 35824,
        "name": "COSMOS 2251 DEB",
        "group": "cosmos-2251-debris",
        "lat": -17.11416719739113,
        "lon": -115.85328274747974,
        "alt_km": 822.3301567338058,
        "timestamp": "2025-12-06T18:50:10.566451+00:00",
        "meta_object_name": "COSMOS 2251 DEB",
        "meta_object_id": "1993-036ASW",
        "meta_epoch": "2025-12-05T22:52:58.587168",
        "meta_mean_motion": 13.88379275,
        "meta_eccentricity": 0.02497807,
        "meta_inclination": 73.8463,
        "meta_ra_of_asc_node": 60.4551,
        "meta_arg_of_pericenter": 147.799,
        "meta_mean_anomaly": 213.8673,
        "meta_ephemeris_type": 0,
        "meta_classification_type": "U",
        "meta_norad_cat_id": 35824,
        "meta_element_set_no": 999,
        "meta_rev_at_epoch": 84133,
        "meta_bstar": 0.002389201,
        "meta_mean_motion_dot": 3.65e-05,
        "meta_mean_motion_ddot": 0,
        "tle_line1": "1 35824U 93036ASW 25339.95345587  .00003650  00000+0  23892-2 0  9990",
        "tle_line2": "2 35824  73.8463  60.4551 0249780 147.7990 213.8673 13.88379275841335"
      },
      "geometry": {
        "type": "Point",
        "coordinates": [
          -115.85328274747974,
          -17.11416719739113
        ]
      }
    },
    {
      "type": "Feature",
      "properties": {
        "norad_id": 35825,
        "name": "COSMOS 2251 DEB",
        "group": "cosmos-2251-debris",
        "lat": -40.900997957787055,
        "lon": -13.27983469703624,
        "alt_km": 767.801443037858,
        "timestamp": "2025-12-06T18:50:10.566460+00:00",
        "meta_object_name": "COSMOS 2251 DEB",
        "meta_object_id": "1993-036ASX",
        "meta_epoch": "2025-11-18T20:38:01.180896",
        "meta_mean_motion": 13.70825357,
        "meta_eccentricity": 0.03535711,
        "meta_inclination": 74.1138,
        "meta_ra_of_asc_node": 181.8907,
        "meta_arg_of_pericenter": 283.1782,
        "meta_mean_anomaly": 73.0118,
        "meta_ephemeris_type": 0,
        "meta_classification_type": "U",
        "meta_norad_cat_id": 35825,
        "meta_element_set_no": 999,
        "meta_rev_at_epoch": 82181,
        "meta_bstar": 0.0013809564,
        "meta_mean_motion_dot": 1.891e-05,
        "meta_mean_motion_ddot": 0,
        "tle_line1": "1 35825U 93036ASX 25322.85973589  .00001891  00000+0  13810-2 0  9995",
        "tle_line2": "2 35825  74.1138 181.8907 0353571 283.1782  73.0118 13.70825357821819"
      },
      "geometry": {
        "type": "Point",
        "coordinates": [
          -13.27983469703624,
          -40.900997957787055
        ]
      }
    },
    {
      "type": "Feature",
      "properties": {
        "norad_id": 35829,
        "name": "COSMOS 2251 DEB",
        "group": "cosmos-2251-debris",
        "lat": 13.709248846959857,
        "lon": 114.48205980073186,
        "alt_km": 647.1519143247615,
        "timestamp": "2025-12-06T18:50:10.566481+00:00",
        "meta_object_name": "COSMOS 2251 DEB",
        "meta_object_id": "1993-036ATB",
        "meta_epoch": "2025-12-05T15:07:04.255104",
        "meta_mean_motion": 14.75969837,
        "meta_eccentricity": 0.00070374,
        "meta_inclination": 74.0263,
        "meta_ra_of_asc_node": 112.7361,
        "meta_arg_of_pericenter": 173.6411,
        "meta_mean_anomaly": 186.4854,
        "meta_ephemeris_type": 0,
        "meta_classification_type": "U",
        "meta_norad_cat_id": 35829,
        "meta_element_set_no": 999,
        "meta_rev_at_epoch": 87670,
        "meta_bstar": 0.0034354809,
        "meta_mean_motion_dot": 0.00023702,
        "meta_mean_motion_ddot": 0,
        "tle_line1": "1 35829U 93036ATB 25339.62991036  .00023702  00000+0  34355-2 0  9991",
        "tle_line2": "2 35829  74.0263 112.7361 0007037 173.6411 186.4854 14.75969837876705"
      },
      "geometry": {
        "type": "Point",
        "coordinates": [
          114.48205980073186,
          13.709248846959857
        ]
      }
    },
    {
      "type": "Feature",
      "properties": {
        "norad_id": 35830,
        "name": "COSMOS 2251 DEB",
        "group": "cosmos-2251-debris",
        "lat": -3.8552032962738862,
        "lon": -83.84237271843206,
        "alt_km": 843.6437114961291,
        "timestamp": "2025-12-06T18:50:10.566492+00:00",
        "meta_object_name": "COSMOS 2251 DEB",
        "meta_object_id": "1993-036ATC",
        "meta_epoch": "2025-12-04T04:28:02.478720",
        "meta_mean_motion": 14.23905065,
        "meta_eccentricity": 0.0123073,
        "meta_inclination": 73.8631,
        "meta_ra_of_asc_node": 282.002,
        "meta_arg_of_pericenter": 251.8911,
        "meta_mean_anomaly": 106.8798,
        "meta_ephemeris_type": 0,
        "meta_classification_type": "U",
        "meta_norad_cat_id": 35830,
        "meta_element_set_no": 999,
        "meta_rev_at_epoch": 61142,
        "meta_bstar": 0.0019117,
        "meta_mean_motion_dot": 4.714e-05,
        "meta_mean_motion_ddot": 0,
        "tle_line1": "1 35830U 93036ATC 25338.18613980  .00004714  00000+0  19117-2 0  9993",
        "tle_line2": "2 35830  73.8631 282.0020 0123073 251.8911 106.8798 14.23905065611424"
      },
      "geometry": {
        "type": "Point",
        "coordinates": [
          -83.84237271843206,
          -3.8552032962738862
        ]
      }
    }
  ]
}